{"type": "FeatureCollection", "features": [ {"type": "Feature", "properties": {"norad_id": 67081, "name": "STARLINK-35864", "group": "last-30-days", "lat": 0.9597534046980384, "lon": -136.38351376501032, "alt_km": 307.5851620646745, "timestamp": "2025-12-22T04:03:37.890809+00:00", "meta": {"OBJECT_NAME": "STARLINK-35864", "OBJECT_ID": "2025-298G", "EPOCH": "2025-12-21T20:00:01.999008", "MEAN_MOTION": 15.89041972, "ECCENTRICITY": 0.0004652, "INCLINATION": 69.9985, "RA_OF_ASC_NODE": 224.2376, "ARG_OF_PERICENTER": 267.3268, "MEAN_ANOMALY": 333.2055, "EPHEMERIS_TYPE": 0, "CLASSIFICATION_TYPE": "U", "NORAD_CAT_ID": 67081, "ELEMENT_SET_NO": 999, "REV_AT_EPOCH": 244, "BSTAR": 2.7231e-05, "MEAN_MOTION_DOT": 6.566e-05, "MEAN_MOTION_DDOT": 3.9207e-06}, "tle": {"line1": "1 67081U 25298G   25355.83335647  .00006566  39207-5  27231-4 0  9995", "line2": "2 67081  69.9985 224.2376 0004652 267.3268 333.2055 15.89041972  2444"}}, "geometry": {"type": "Point", "coordinates": [-136.38351376501032, 0.9597534046980384]}}, {"type": "Feature", "properties": {"norad_id": 67082, "name": "STARLINK-36035", "group": "last-30-days", "lat": 2.7170916808259027, "lon": -135.74341451286628, "alt_km": 307.67470491088534, "timestamp": "2025-12-22T04:03:37.890821+00:00", "meta": {"OBJECT_NAME": "STARLINK-36035", "OBJECT_ID": "2025-298H", "EPOCH": "2025-12-21T20:00:01.999008", "MEAN_MOTION": 15.89086371, "ECCENTRICITY": 0.000457, "INCLINATION": 69.9984, "RA_OF_ASC_NODE": 224.2368, "ARG_OF_PERICENTER": 264.9831, "MEAN_ANOMALY": 337.4179, "EPHEMERIS_TYPE": 0, "CLASSIFICATION_TYPE": "U", "NORAD_CAT_ID": 67082, "ELEMENT_SET_NO": 999, "REV_AT_EPOCH": 244, "BSTAR": -0.0004117, "MEAN_MOTION_DOT": -0.0011941, "MEAN_MOTION_DDOT": 8.5348e-06}, "tle": {"line1": "1 67082U 25298H   25355.83335647 -.00119410  85348-5 -41170-3 0  9995", "line2": "2 67082  69.9984 224.2368 0004570 264.9831 337.4179 15.89086371  2448"}}, "geometry": {"type": "Point", "coordinates": [-135.74341451286628, 2.7170916808259027]}}, {"type": "Feature", "properties": {"norad_id": 67083, "name": "STARLINK-36170", "group": "last-30-days", "lat": 4.604531614174687, "lon": -135.05536304203883, "alt_km": 307.4221612977044, "timestamp": "2025-12-22T04:03:37.890833+00:00", "meta": {"OBJECT_NAME": "STARLINK-36170", "OBJECT_ID": "2025-298J", "EPOCH": "2025-12-21T20:00:01.999008", "MEAN_MOTION": 15.89137096, "ECCENTRICITY": 0.0004608, "INCLINATION": 69.9982, "RA_OF_ASC_NODE": 224.2343, "ARG_OF_PERICENTER": 264.6189, "MEAN_ANOMALY": 339.7338, "EPHEMERIS_TYPE": 0, "CLASSIFICATION_TYPE": "U", "NORAD_CAT_ID": 67083, "ELEMENT_SET_NO": 999, "REV_AT_EPOCH": 244, "BSTAR": -0.00044885, "MEAN_MOTION_DOT": -0.00130403, "MEAN_MOTION_DDOT": 9.4302e-06}, "tle": {"line1": "1 67083U 25298J   25355.83335647 -.00130403  94302-5 -44885-3 0  9997", "line2": "2 67083  69.9982 224.2343 0004608 264.6189 339.7338 15.89137096  2448"}}, "geometry": {"type": "Point", "coordinates": [-135.05536304203883, 4.604531614174687]}}, {"type": "Feature", "properties": {"norad_id": 67084, "name": "STARLINK-36166", "group": "last-30-days", "lat": 6.368000692640522, "lon": -134.40897430952208, "alt_km": 307.05469509923114, "timestamp": "2025-12-22T04:03:37.890845+00:00", "meta": {"OBJECT_NAME": "STARLINK-36166", "OBJECT_ID": "2025-298K", "EPOCH": "2025-12-21T20:00:01.999008", "MEAN_MOTION": 15.89187089, "ECCENTRICITY": 0.0004581, "INCLINATION": 69.9983, "RA_OF_ASC_NODE": 224.232, "ARG_OF_PERICENTER": 266.048, "MEAN_ANOMALY": 340.1222, "EPHEMERIS_TYPE": 0, "CLASSIFICATION_TYPE": "U", "NORAD_CAT_ID": 67084, "ELEMENT_SET_NO": 999, "REV_AT_EPOCH": 238, "BSTAR": -0.00045053, "MEAN_MOTION_DOT": -0.00131209, "MEAN_MOTION_DDOT": 9.5021e-06}, "tle": {"line1": "1 67084U 25298K   25355.83335647 -.00131209  95021-5 -45053-3 0  9990", "line2": "2 67084  69.9983 224.2320 0004581 266.0480 340.1222 15.89187089  2383"}}, "geometry": {"type": "Point", "coordinates": [-134.40897430952208, 6.368000692640522]}}, {"type": "Feature", "properties": {"norad_id": 67085, "name": "STARLINK-35794", "group": "last-30-days", "lat": 8.102474908912365, "lon": -133.7682965365996, "alt_km": 306.79265049615424, "timestamp": "2025-12-22T04:03:37.890855+00:00", "meta": {"OBJECT_NAME": "STARLINK-35794", "OBJECT_ID": "2025-298L", "EPOCH": "2025-12-21T20:00:01.999008", "MEAN_MOTION": 15.89237139, "ECCENTRICITY": 0.0004686, "INCLINATION": 69.9983, "RA_OF_ASC_NODE": 224.23, "ARG_OF_PERICENTER": 265.79, "MEAN_ANOMALY": 342.1664, "EPHEMERIS_TYPE": 0, "CLASSIFICATION_TYPE": "U", "NORAD_CAT_ID": 67085, "ELEMENT_SET_NO": 999, "REV_AT_EPOCH": 244, "BSTAR": -0.00045261, "MEAN_MOTION_DOT": -0.00132143, "MEAN_MOTION_DDOT": 9.5855e-06}, "tle": {"line1": "1 67085U 25298L   25355.83335647 -.00132143  95855-5 -45261-3 0  9995", "line2": "2 67085  69.9983 224.2300 0004686 265.7900 342.1664 15.89237139  2442"}}, "geometry": {"type": "Point", "coordinates": [-133.7682965365996, 8.102474908912365]}}, {"type": "Feature", "properties": {"norad_id": 67086, "name": "STARLINK-35841", "group": "last-30-days", "lat": 10.090525372011406, "lon": -133.0268423297315, "alt_km": 306.5193573778133, "timestamp": "2025-12-22T04:03:37.890865+00:00", "meta": {"OBJECT_NAME": "STARLINK-35841", "OBJECT_ID": "2025-298M", "EPOCH": "2025-12-21T20:00:01.999008", "MEAN_MOTION": 15.89288177, "ECCENTRICITY": 0.000451, "INCLINATION": 69.9982, "RA_OF_ASC_NODE": 224.2274, "ARG_OF_PERICENTER": 264.1424, "MEAN_ANOMALY": 345.8731, "EPHEMERIS_TYPE": 0, "CLASSIFICATION_TYPE": "U", "NORAD_CAT_ID": 67086, "ELEMENT_SET_NO": 999, "REV_AT_EPOCH": 244, "BSTAR": -0.00044817, "MEAN_MOTION_DOT": -0.00131181, "MEAN_MOTION_DDOT": 9.5068e-06}, "tle": {"line1": "1 67086U 25298M   25355.83335647 -.00131181  95068-5 -44817-3 0  9999", "line2": "2 67086  69.9982 224.2274 0004510 264.1424 345.8731 15.89288177  2445"}}, "geometry": {"type": "Point", "coordinates": [-133.0268423297315, 10.090525372011406]}}, {"type": "Feature", "properties": {"norad_id": 67087, "name": "STARLINK-35842", "group": "last-30-days", "lat": 11.633082555297046, "lon": -132.44502388975002, "alt_km": 305.9523780793179, "timestamp": "2025-12-22T04:03:37.890875+00:00", "meta": {"OBJECT_NAME": "STARLINK-35842", "OBJECT_ID": "2025-298N", "EPOCH": "2025-12-21T20:00:01.999008", "MEAN_MOTION": 15.89314063, "ECCENTRICITY": 0.0004618, "INCLINATION": 69.9981, "RA_OF_ASC_NODE": 224.2252, "ARG_OF_PERICENTER": 268.5213, "MEAN_ANOMALY": 343.0739, "EPHEMERIS_TYPE": 0, "CLASSIFICATION_TYPE": "U", "NORAD_CAT_ID": 67087, "ELEMENT_SET_NO": 999, "REV_AT_EPOCH": 244, "BSTAR": -0.00017663, "MEAN_MOTION_DOT": -0.00052519, "MEAN_MOTION_DDOT": 4.788e-06}, "tle": {"line1": "1 67087U 25298N   25355.83335647 -.00052519  47880-5 -17663-3 0  9995", "line2": "2 67087  69.9981 224.2252 0004618 268.5213 343.0739 15.89314063  2446"}}, "geometry": {"type": "Point", "coordinates": [-132.44502388975002, 11.633082555297046]}}, {"type": "Feature", "properties": {"norad_id": 67088, "name": "STARLINK-35882", "group": "last-30-days", "lat": 13.574152251492682, "lon": -131.70228106091108, "alt_km": 305.4177522469754, "timestamp": "2025-12-22T04:03:37.890885+00:00", "meta": {"OBJECT_NAME": "STARLINK-35882", "OBJECT_ID": "2025-298P", "EPOCH": "2025-12-21T20:00:01.999008", "MEAN_MOTION": 15.89371, "ECCENTRICITY": 0.000353, "INCLINATION": 69.9983, "RA_OF_ASC_NODE": 224.223, "ARG_OF_PERICENTER": 274.4292, "MEAN_ANOMALY": 339.2377, "EPHEMERIS_TYPE": 0, "CLASSIFICATION_TYPE": "U", "NORAD_CAT_ID": 67088, "ELEMENT_SET_NO": 999, "REV_AT_EPOCH": 244, "BSTAR": -0.00066541, "MEAN_MOTION_DOT": -0.00194888, "MEAN_MOTION_DDOT": 1.6225e-05}, "tle": {"line1": "1 67088U 25298P   25355.83335647 -.00194888  16225-4 -66541-3 0  9999", "line2": "2 67088  69.9983 224.2230 0003530 274.4292 339.2377 15.89371000  2449"}}, "geometry": {"type": "Point", "coordinates": [-131.70228106091108, 13.574152251492682]}}, {"type": "Feature", "properties": {"norad_id": 67089, "name": "STARLINK-35763", "group": "last-30-days", "lat": 15.539801965801951, "lon": -130.9370705134231, "alt_km": 305.1328846889919, "timestamp": "2025-12-22T04:03:37.890895+00:00", "meta": {"OBJECT_NAME": "STARLINK-35763", "OBJECT_ID": "2025-298Q", "EPOCH": "2025-12-21T20:00:01.999008", "MEAN_MOTION": 15.89424125, "ECCENTRICITY": 0.0003598, "INCLINATION": 69.9982, "RA_OF_ASC_NODE": 224.2204, "ARG_OF_PERICENTER": 272.6317, "MEAN_ANOMALY": 343.0706, "EPHEMERIS_TYPE": 0, "CLASSIFICATION_TYPE": "U", "NORAD_CAT_ID": 67089, "ELEMENT_SET_NO": 999, "REV_AT_EPOCH": 244, "BSTAR": -0.00066248, "MEAN_MOTION_DOT": -0.00194553, "MEAN_MOTION_DDOT": 1.619e-05}, "tle": {"line1": "1 67089U 25298Q   25355.83335647 -.00194553  16190-4 -66248-3 0  9994", "line2": "2 67089  69.9982 224.2204 0003598 272.6317 343.0706 15.89424125  2448"}}, "geometry": {"type": "Point", "coordinates": [-130.9370705134231, 15.539801965801951]}}, {"type": "Feature", "properties": {"norad_id": 67090, "name": "STARLINK-36060", "group": "last-30-days", "lat": 17.17475543297148, "lon": -130.28850278049512, "alt_km": 305.35080282227136, "timestamp": "2025-12-22T04:03:37.890904+00:00", "meta": {"OBJECT_NAME": "STARLINK-36060", "OBJECT_ID": "2025-298R", "EPOCH": "2025-12-21T20:00:01.999008", "MEAN_MOTION": 15.89606979, "ECCENTRICITY": 0.0003819, "INCLINATION": 69.9977, "RA_OF_ASC_NODE": 224.2183, "ARG_OF_PERICENTER": 261.1016, "MEAN_ANOMALY": 356.2187, "EPHEMERIS_TYPE": 0, "CLASSIFICATION_TYPE": "U", "NORAD_CAT_ID": 67090, "ELEMENT_SET_NO": 999, "REV_AT_EPOCH": 238, "BSTAR": -0.0014053, "MEAN_MOTION_DOT": -0.00414893, "MEAN_MOTION_DDOT": 5.8256e-05}, "tle": {"line1": "1 67090U 25298R   25355.83335647 -.00414893  58256-4 -14053-2 0  9993", "line2": "2 67090  69.9977 224.2183 0003819 261.1016 356.2187 15.89606979  2386"}}, "geometry": {"type": "Point", "coordinates": [-130.28850278049512, 17.17475543297148]}}]}